IRIDIUM 39              
1 25042U 97069D   25365.37743718  .00001443  00000+0  37042-3 0  9995
2 25042  86.3932 126.6393 0017949  14.3978 345.7734 14.49538865477529
IRIDIUM 38              
1 25043U 97069E   25365.48328686  .00000986  00000+0  31757-3 0  9999
2 25043  86.3986 150.2268 0003050 131.1802 228.9660 14.38336297474312
IRIDIUM 42              
1 25077U 97077A   25365.52370490  .00000895  00000+0  29813-3 0  9999
2 25077  86.3991 156.6210 0002069 114.3318 245.8096 14.36552343469524
IRIDIUM 44              
1 25078U 97077B   25365.43136023  .00000794  00000+0  24364-3 0  9996
2 25078  86.3984 138.0684 0003910  96.1819 263.9826 14.40450632472096
IRIDIUM 45              
1 25104U 97082A   25365.35803071  .00047846  00000+0  13169-2 0  9996
2 25104  86.3545 311.4948 0092957 309.7718  49.5369 15.32638508482126
IRIDIUM 24              
1 25105U 97082B   25365.49502556  .00000982  00000+0  29119-3 0  9999
2 25105  86.3911 356.5924 0012659 137.6019 222.6162 14.42349564471653
IRIDIUM 51              
1 25262U 98018A   25365.39284997  .00144208  00000+0  13031-2 0  9993
2 25262  86.3717 316.6380 0046563 193.0928 166.9137 15.66242690477567
IRIDIUM 57              
1 25273U 98019B   25365.23710529  .00000638  00000+0  21259-3 0  9994
2 25273  86.3941  62.6303 0002259  96.6579 263.4875 14.36067127453062
